     2              NAVIGATION DATA                         RINEX VERSION / TYPE
CCRINEXN V1.6.0 UX  CDDIS               09-JUN-16 15:33     PGM / RUN BY / DATE 
IGS BROADCAST EPHEMERIS FILE                                COMMENT             
    0.6519D-08  0.2235D-07 -0.5960D-07 -0.1192D-06          ION ALPHA           
    0.8602D+05  0.9830D+05 -0.6554D+05 -0.5243D+06          ION BETA            
    0.000000000000D+00-0.266453525910D-14   405504     1900 DELTA-UTC: A0,A1,T,W
    17                                                      LEAP SECONDS        
                                                            END OF HEADER       
21 16  6  8 20  0  0.0-0.525244977325D-03-0.113686837722D-11 0.000000000000D+00
    0.710000000000D+02-0.548125000000D+02 0.487770317592D-08-0.136429697107D+01
   -0.272504985332D-05 0.233507797820D-01 0.103190541267D-04 0.515360829926D+04
    0.331200000000D+06 0.108033418655D-06-0.244449498637D+01 0.637024641037D-06
    0.936621267750D+00 0.165562500000D+03-0.178457612255D+01-0.819676999980D-08
   -0.467876631797D-10 0.000000000000D+00 0.190000000000D+04 0.000000000000D+00
    0.200000000000D+01 0.000000000000D+00-0.102445483208D-07 0.710000000000D+02
    0.324000000000D+06 0.400000000000D+01 0.000000000000D+00 0.000000000000D+00
22 16  6  8 20  0  0.0 0.324408523738D-03-0.852651282912D-11 0.000000000000D+00
    0.300000000000D+02 0.247187500000D+02 0.557237496893D-08 0.202783023001D+01
    0.100210309029D-05 0.767556228675D-02 0.736117362976D-05 0.515380039597D+04
    0.331200000000D+06 0.502914190292D-07-0.140179680454D+01-0.124797224999D-06
    0.922479741921D+00 0.215281250000D+03-0.190824301000D+01-0.844999483335D-08
    0.314298806093D-09 0.100000000000D+01 0.190000000000D+04 0.000000000000D+00
    0.200000000000D+01 0.000000000000D+00-0.176951289177D-07 0.300000000000D+02
    0.327180000000D+06 0.400000000000D+01 0.000000000000D+00 0.000000000000D+00
23 16  6  8 20  0  0.0-0.177295878529D-03-0.159161572810D-11 0.000000000000D+00
    0.900000000000D+01-0.393750000000D+01 0.499985112101D-08 0.115861809442D+01
   -0.819563865662D-07 0.110081379535D-01 0.702217221260D-05 0.515366006470D+04
    0.331200000000D+06-0.175088644028D-06-0.324390332457D+00 0.912696123123D-07
    0.946102587576D+00 0.238562500000D+03-0.256789737676D+01-0.828498796015D-08
   -0.498592196938D-09 0.000000000000D+00 0.190000000000D+04 0.000000000000D+00
    0.200000000000D+01 0.000000000000D+00-0.200234353542D-07 0.900000000000D+01
    0.324300000000D+06 0.400000000000D+01 0.000000000000D+00 0.000000000000D+00
24 16  6  8 20  0  0.0-0.182646326721D-04-0.568434188608D-12 0.000000000000D+00
    0.770000000000D+02 0.469375000000D+02 0.459876298551D-08 0.590796695545D+00
    0.239908695221D-05 0.441422068980D-02 0.102911144495D-04 0.515361951256D+04
    0.331200000000D+06 0.558793544769D-08 0.700824107246D+00 0.113621354103D-06
    0.949579756597D+00 0.178843750000D+03 0.418773108038D+00-0.804033491222D-08
   -0.131434046184D-09 0.100000000000D+01 0.190000000000D+04 0.000000000000D+00
    0.200000000000D+01 0.000000000000D+00 0.232830643654D-08 0.770000000000D+02
    0.329928000000D+06 0.400000000000D+01 0.000000000000D+00 0.000000000000D+00
25 16  6  8 20  0  0.0-0.186601653695D-03-0.704858393874D-11 0.000000000000D+00
    0.220000000000D+02 0.684062500000D+02 0.433589489314D-08-0.145710471931D+01
    0.364705920219D-05 0.561817293055D-02 0.379979610443D-05 0.515374638748D+04
    0.331200000000D+06 0.726431608200D-07 0.177382929959D+01 0.186264514923D-07
    0.978282880792D+00 0.314843750000D+03 0.781788266745D+00-0.812069540242D-08
    0.337156901081D-09 0.000000000000D+00 0.190000000000D+04 0.000000000000D+00
    0.200000000000D+01 0.000000000000D+00 0.558793544769D-08 0.220000000000D+02
    0.324000000000D+06 0.400000000000D+01 0.000000000000D+00 0.000000000000D+00
26 16  6  8 20  0  0.0-0.389858614653D-03-0.114823706099D-10 0.000000000000D+00
    0.700000000000D+02 0.766562500000D+02 0.478769942690D-08-0.226190725925D+01
    0.382773578167D-05 0.101375381928D-02 0.366754829884D-05 0.515376943970D+04
    0.331200000000D+06 0.372529029846D-08 0.176463406217D+01-0.149011611938D-07
    0.960252811915D+00 0.311562500000D+03 0.191166546443D+00-0.834820487910D-08
    0.275368613065D-09 0.000000000000D+00 0.190000000000D+04 0.000000000000D+00
    0.200000000000D+01 0.000000000000D+00 0.698491930962D-08 0.700000000000D+02
    0.324000000000D+06 0.400000000000D+01 0.000000000000D+00 0.000000000000D+00
27 16  6  8 20  0  0.0 0.101374462247D-03 0.420641299570D-11 0.000000000000D+00
    0.760000000000D+02-0.882187500000D+02 0.457197615544D-08 0.246983950520D+01
   -0.457838177681D-05 0.372315256391D-02 0.410713255405D-05 0.515364350891D+04
    0.331200000000D+06-0.182539224625D-06 0.281531003660D+01 0.372529029846D-08
    0.971725142767D+00 0.306625000000D+03 0.295691693569D+00-0.820534178542D-08
   -0.188579283655D-09 0.000000000000D+00 0.190000000000D+04 0.000000000000D+00
    0.200000000000D+01 0.000000000000D+00 0.139698386192D-08 0.760000000000D+02
    0.327240000000D+06 0.400000000000D+01 0.000000000000D+00 0.000000000000D+00
28 16  6  8 20  0  0.0 0.528768170625D-03 0.272848410532D-11 0.000000000000D+00
    0.180000000000D+02 0.808437500000D+02 0.409338479162D-08-0.301565571227D+01
    0.404939055443D-05 0.197455465095D-01 0.371225178242D-05 0.515362988091D+04
    0.331200000000D+06 0.398606061935D-06 0.184864530448D+01 0.372529029846D-08
    0.989288450075D+00 0.319250000000D+03-0.161597885450D+01-0.779889628391D-08
    0.348585948575D-09 0.100000000000D+01 0.190000000000D+04 0.000000000000D+00
    0.200000000000D+01 0.000000000000D+00-0.111758708954D-07 0.180000000000D+02
    0.324018000000D+06 0.400000000000D+01 0.000000000000D+00 0.000000000000D+00
29 16  6  8 20  0  0.0 0.656845048070D-03-0.227373675443D-12 0.000000000000D+00
    0.700000000000D+02-0.912500000000D+02 0.438982571100D-08-0.152354667683D+01
   -0.460259616375D-05 0.941516016610D-03 0.430271029472D-05 0.515356536293D+04
    0.331200000000D+06 0.113621354103D-06 0.287499930177D+01-0.912696123123D-07
    0.977785162414D+00 0.303687500000D+03-0.192569667745D+00-0.820712757409D-08
   -0.205722854897D-09 0.000000000000D+00 0.190000000000D+04 0.000000000000D+00
    0.200000000000D+01 0.000000000000D+00-0.102445483208D-07 0.700000000000D+02
    0.324000000000D+06 0.400000000000D+01 0.000000000000D+00 0.000000000000D+00
30 16  6  8 20  0  0.0 0.131610315293D-03 0.284217094304D-11 0.000000000000D+00
    0.900000000000D+02 0.686562500000D+02 0.447018620120D-08-0.220104600652D+00
    0.359490513802D-05 0.216872757301D-02 0.106692314148D-04 0.515360070038D+04
    0.331200000000D+06 0.931322574616D-08 0.792158907638D+00-0.558793544769D-08
    0.952235647797D+00 0.166250000000D+03 0.302390544818D+01-0.801711965950D-08
   -0.671456540289D-10 0.100000000000D+01 0.190000000000D+04 0.000000000000D+00
    0.200000000000D+01 0.000000000000D+00 0.325962901115D-08 0.900000000000D+02
    0.324018000000D+06 0.400000000000D+01 0.000000000000D+00 0.000000000000D+00
31 16  6  8 20  0  0.0 0.264903530478D-03-0.193267624127D-11 0.000000000000D+00
    0.800000000000D+01 0.697812500000D+02 0.408445584827D-08-0.481406219358D+00
    0.350549817085D-05 0.814923632424D-02 0.976957380772D-05 0.515376381302D+04
    0.331200000000D+06 0.577419996262D-07 0.757600543069D+00-0.132247805595D-06
    0.971286818863D+00 0.191875000000D+03-0.395296870181D+00-0.786497046473D-08
   -0.357157734196D-11 0.000000000000D+00 0.190000000000D+04 0.000000000000D+00
    0.200000000000D+01 0.000000000000D+00-0.135041773319D-07 0.800000000000D+01
    0.324000000000D+06 0.400000000000D+01 0.000000000000D+00 0.000000000000D+00
32 16  6  8 20  0  0.0-0.206641852856D-04-0.761701812735D-11 0.000000000000D+00
    0.480000000000D+02-0.856250000000D+01 0.457661920599D-08 0.281531858296D+01
   -0.301748514175D-06 0.460479990579D-03 0.705197453499D-05 0.515361142731D+04
    0.331200000000D+06-0.558793544769D-08-0.328071512718D+00-0.186264514923D-08
    0.959760440503D+00 0.243437500000D+03-0.233619685063D+01-0.804926385558D-08
   -0.291797868838D-09 0.000000000000D+00 0.190000000000D+04 0.000000000000D+00
    0.200000000000D+01 0.000000000000D+00 0.465661287308D-09 0.480000000000D+02
    0.324000000000D+06 0.400000000000D+01 0.000000000000D+00 0.000000000000D+00
 4 16  6  8 21 59 28.0-0.257503241301D-03-0.568434188608D-12 0.000000000000D+00
    0.700000000000D+01 0.655000000000D+02 0.538272421207D-08-0.168046368949D+01
    0.343285501003D-05 0.849925365765D-02 0.375509262085D-05 0.515365202522D+04
    0.338368000000D+06 0.115483999252D-06 0.179546812112D+01-0.558793544769D-08
    0.983059693068D+00 0.313968750000D+03 0.893868461186D+00-0.800890503161D-08
    0.375372778640D-09 0.000000000000D+00 0.190000000000D+04 0.000000000000D+00
    0.200000000000D+01 0.630000000000D+02-0.195577740669D-07 0.700000000000D+01
    0.331200000000D+06 0.400000000000D+01 0.000000000000D+00 0.000000000000D+00
 1 16  6  8 21 59 44.0 0.230097211897D-04 0.125055521494D-11 0.000000000000D+00
    0.600000000000D+01-0.649062500000D+02 0.436518182735D-08 0.142439700170D+01
   -0.317580997944D-05 0.555128220003D-02 0.110641121864D-04 0.515365056801D+04
    0.338384000000D+06-0.186264514923D-08-0.241063688118D+01 0.134110450745D-06
    0.964612214165D+00 0.168593750000D+03 0.467151963989D+00-0.792032991353D-08
    0.139291516337D-10 0.100000000000D+01 0.190000000000D+04 0.000000000000D+00
    0.200000000000D+01 0.000000000000D+00 0.512227416039D-08 0.600000000000D+01
    0.336420000000D+06 0.400000000000D+01 0.000000000000D+00 0.000000000000D+00
